OBJECT_NAME,OBJECT_ID,EPOCH,MEAN_MOTION,ECCENTRICITY,INCLINATION,RA_OF_ASC_NODE,ARG_OF_PERICENTER,MEAN_ANOMALY,EPHEMERIS_TYPE,CLASSIFICATION_TYPE,NORAD_CAT_ID,ELEMENT_SET_NO,REV_AT_EPOCH,BSTAR,MEAN_MOTION_DOT,MEAN_MOTION_DDOT
TRITON-1,2013-066M,2026-07-11T04:49:44.829984,14.81789207,.0090238,97.8226,101.4598,155.0082,205.5541,0,U,39427,999,67764,.19375E-3,.1584E-4,0
GOMX-1,2013-066Q,2026-07-11T03:41:44.038752,14.69536877,.0128697,97.6478,31.1045,1.2098,358.9396,0,U,39430,999,67343,.15616E-3,.1E-4,0
CUBEBUG-2 (LO-74),2013-066AA,2026-07-10T07:20:24.677952,14.93948233,.00561215,97.8906,140.3858,311.9936,47.6511,0,U,39440,999,68044,.18439435E-3,.1961E-4,0
NEE-02 KRYSAOR,2013-066AB,2026-07-10T07:04:37.483392,14.86726426,.00658491,97.8892,130.3465,355.4507,4.6102,0,U,39441,999,67963,.17498287E-3,.1559E-4,0
FUNCUBE-1 (AO-73),2013-066AE,2026-07-10T23:38:02.253120,15.09785992,.0037927,97.8286,163.9335,121.2536,239.2417,0,U,39444,999,68325,.25254E-3,.4079E-4,0
UWE-3,2013-066AG,2026-07-10T08:11:15.078336,14.97180749,.00475418,97.8693,147.5751,241.4844,118.1586,0,U,39446,999,68104,.17602772E-3,.2018E-4,0
SMDC ONE 2.4,2013-072H,2026-07-11T04:03:49.360320,15.18733560,.0147703,120.4918,84.7118,44.2974,316.9814,0,U,39469,999,12147,.34252E-3,.9158E-4,0
COSMOS 2488 (RODNIK-S 7),2013-076A,2026-07-11T04:28:38.383968,12.42906133,.0020713,82.4845,153.7431,45.8265,314.4512,0,U,39483,999,56887,-.18568E-3,-.16E-6,0
COSMOS 2489 (RODNIK-S 8),2013-076B,2026-07-11T03:53:39.484320,12.42879967,.0022521,82.4881,155.1449,45.6235,314.6684,0,U,39484,999,56892,-.63664E-4,.1E-7,0
COSMOS 2490 (RODNIK-S 9),2013-076C,2026-07-11T05:09:08.523072,12.42879015,.0022867,82.4829,153.1692,60.3430,299.9923,0,U,39485,999,56886,.3429E-4,.15E-6,0
KAZEOSAT 1,2014-024A,2026-07-11T04:01:31.851264,14.42036085,.0001265,98.3200,264.0174,83.0801,277.0533,0,U,39731,999,64201,-.35792E-5,-.54E-6,0
COSMOS 2496 (RODNIK-S 10),2014-028A,2026-07-11T04:07:55.191648,12.42879328,.002101,82.4453,93.7094,29.3774,330.8482,0,U,39761,999,55049,-.46634E-4,.3E-7,0
COSMOS 2497 (RODNIK-S 11),2014-028B,2026-07-11T03:31:53.042880,12.42895289,.0021469,82.4501,95.4240,24.5566,335.6531,0,U,39762,999,55049,.30672E-3,.52E-6,0
COSMOS 2498 (RODNIK-S 12),2014-028C,2026-07-11T04:53:09.195360,12.42980834,.0022186,82.4461,93.8654,23.9621,336.2486,0,U,39763,999,55053,.79256E-4,.21E-6,0
HODOYOSHI-4,2014-033B,2026-07-11T04:08:54.392928,14.88180467,.0022357,97.5461,15.8394,223.7729,136.1716,0,U,40011,999,65237,.19794E-4,.131E-5,0
UNISAT-6,2014-033C,2026-07-10T09:29:30.491520,14.88355319,.00445681,97.7899,343.7035,353.7824,6.2834,0,U,40012,999,64961,.13755491E-3,.1239E-4,0
DEIMOS-2,2014-033D,2026-07-11T03:56:48.557760,14.93789624,.0000978,97.5806,65.8083,83.6329,276.5002,0,U,40013,999,64130,.30814E-4,.273E-5,0
BUGSAT-1 (TITA),2014-033E,2026-07-11T04:45:39.327840,15.15857672,.002906,98.0430,286.1555,98.9501,261.5021,0,U,40014,999,65947,.25743E-3,.49E-4,0
SAUDISAT 4,2014-033G,2026-07-11T04:40:20.779680,14.79573077,.0044594,97.7611,337.5031,357.1555,2.9397,0,U,40016,999,64962,.44979E-4,.29E-5,0
APRIZESAT 9,2014-033J,2026-07-09T14:32:28.813920,14.74247790,.00672461,97.9087,323.2598,127.5578,233.1765,0,U,40018,999,64686,.77297808E-4,.477E-5,0
BRITE-CA1 (TORONTO),2014-033L,2026-07-09T04:30:04.468608,14.72715027,.00780057,97.9764,318.7133,205.5751,154.1590,0,U,40020,999,64545,.1176575E-3,.733E-5,0
DUCHIFAT-1,2014-033M,2026-07-10T23:09:54.640800,15.70169676,.000209,98.0442,254.5658,250.6210,109.4824,0,U,40021,999,65947,.80479E-3,.98109E-3,0
